STARLINK-30200          
1 57306U 23096S   23250.11190096  .00012879  00000+0  96640-3 0  9994
2 57306  43.0006 152.5009 0001427 260.7839  99.2842 15.02547254  9140
STARLINK-30209          
1 57307U 23096T   23250.10964100  .00023571  00000+0  17731-2 0  9993
2 57307  42.9988 152.4882 0003472 277.6665  82.3783 15.02124204  9145
STARLINK-30194          
1 57308U 23096U   23250.17164200 -.00007983  00000+0 -57695-3 0  9999
2 57308  43.0001 152.0931 0001239 269.9022  90.1678 15.02511226  9149
STARLINK-30163          
1 57309U 23096V   23250.16838485  .00004656  00000+0  35938-3 0  9990
2 57309  43.0002 152.0687 0001585 263.5767  96.4895 15.02552537  9149
STARLINK-30184          
1 57310U 23096W   23250.58334491 -.00594743  00000+0 -18923-1 0  9992
2 57310  42.9995 130.5295 0001451 246.0952 292.9835 15.33975788  5863
STARLINK-30175          
1 57311U 23096X   23250.16505681  .00000854  00000+0  78240-4 0  9992
2 57311  43.0005 152.0424 0001335 266.2068  93.8621 15.02546097  9154
STARLINK-6290           
1 57328U 23099A   23250.58334491 -.00572570  00000+0 -42573-1 0  9996
2 57328  42.9971 176.6283 0001364 265.5423  92.7401 15.04919835  5950
STARLINK-6138           
1 57329U 23099B   23250.58334491 -.00925493  00000+0 -67071-1 0  9993
2 57329  42.9960 176.3839 0001309 267.0179 193.1664 15.06293694  5954
STARLINK-6212           
1 57330U 23099C   23250.58334491 -.00834222  00000+0 -61770-1 0  9994
2 57330  42.9968 176.5872 0001297 260.2589 115.0179 15.05208736  5854
STARLINK-6234           
1 57331U 23099D   23250.58334491 -.00927571  00000+0 -68684-1 0  9996
2 57331  42.9967 176.5366 0001434 256.3080 140.2474 15.05507301  5912
STARLINK-5831           
1 57332U 23099E   23250.58334491 -.00923544  00000+0 -67778-1 0  9996
2 57332  42.9959 176.4736 0001384 258.6161 163.6340 15.05823715  5958
STARLINK-5585           
1 57333U 23099F   23250.58334491 -.00923881  00000+0 -67340-1 0  9996
2 57333  42.9961 176.4259 0001312 270.6548 172.0796 15.06077296  5951
STARLINK-5589           
1 57334U 23099G   23250.58334491 -.00927481  00000+0 -66274-1 0  9992
2 57334  42.9956 176.2830 0001270 272.3639 229.4653 15.06817654  5782
STARLINK-6316           
1 57335U 23099H   23250.58334491 -.00924571  00000+0 -66842-1 0  9991
2 57335  42.9959 176.3655 0001274 264.2961 203.3921 15.06379992  5950
STARLINK-6320           
1 57336U 23099J   23250.58334491 -.00927002  00000+0 -54242-1 0  9995
2 57336  42.9983 175.2593 0001342 256.2833 315.6041 15.13998800  5955
STARLINK-6322           
1 57337U 23099K   23250.58334491 -.00929604  00000+0 -65627-1 0  9995
2 57337  42.9956 176.1982 0001266 265.4928 271.8851 15.07267154  5855
STARLINK-6374           
1 57338U 23099L   23250.58334491 -.00932822  00000+0 -65002-1 0  9999
2 57338  42.9958 176.1089 0001348 254.2623 320.9070 15.07752430  5928
STARLINK-6332           
1 57339U 23099M   23250.58334491 -.00928160  00000+0 -66037-1 0  9999
2 57339  42.9960 176.2531 0001270 265.8069 248.9803 15.06977836  5854
STARLINK-6321           
1 57340U 23099N   23250.58334491 -.00934303  00000+0 -64239-1 0  9999
2 57340  42.9956 176.0162 0001371 259.6978 354.2704 15.08244687  5855
STARLINK-6377           
1 57341U 23099P   23250.58334491 -.00933801  00000+0 -64805-1 0  9991
2 57341  42.9957 176.0797 0001323 267.0527 320.1982 15.07904509  5856
STARLINK-6375           
1 57342U 23099Q   23250.58334491 -.00930435  00000+0 -62486-1 0  9995
2 57342  42.9958 175.8646 0001439 262.5328  55.1684 15.09085573  5953
STARLINK-6379           
1 57343U 23099R   23250.58334491 -.00935004  00000+0 -64456-1 0  9992
2 57343  42.9957 176.0345 0001375 259.1612 347.1037 15.08151488  5694
STARLINK-6380           
1 57344U 23099S   23250.58334491 -.00929224  00000+0 -62008-1 0  9991
2 57344  42.9959 175.8239 0001468 259.4918  75.3314 15.09312336  5950
STARLINK-6373           
1 57345U 23099T   23250.58334491 -.00933542  00000+0 -63479-1 0  9993
2 57345  42.9955 175.9437 0001391 265.2117  18.8422 15.08644917  5694
STARLINK-6359           
1 57346U 23099U   23250.58334491 -.00927340  00000+0 -61349-1 0  9997
2 57346  42.9962 175.7700 0001522 250.7551 106.7540 15.09618848  5953
STARLINK-6378           
1 57347U 23099V   23250.58334491 -.00932461  00000+0 -63259-1 0  9990
2 57347  42.9956 175.9275 0001402 265.1463  25.6433 15.08725400  5935
STARLINK-6372           
1 57348U 23099W   23250.58334491 -.00924554  00000+0 -60120-1 0  9999
2 57348  42.9970 175.6615 0001384 262.8357 140.2695 15.10231954  5957
STARLINK-6376           
1 57349U 23099X   23250.58334491 -.00927041  00000+0 -61177-1 0  9997
2 57349  42.9961 175.7520 0001508 255.2150 109.4566 15.09707712  5850
STARLINK-6362           
1 57350U 23099Y   23250.58334491 -.00914427  00000+0 -21876-1 0  9995
2 57350  42.9960 167.4158 0001467 251.1261 294.4819 15.43252723  6029
STARLINK-6331           
1 57351U 23099Z   23250.58334491 -.00925329  00000+0 -60614-1 0  9992
2 57351  42.9966 175.7066 0001462 264.7967 119.2039 15.09969404  5956
STARLINK-6297           
1 57352U 23099AA  23250.58334491 -.00914387  00000+0 -21405-1 0  9990
2 57352  42.9982 167.3969 0001514 249.4855 304.1101 15.43889512  6021
STARLINK-6324           
1 57353U 23099AB  23250.58334491 -.00924779  00000+0 -59701-1 0  9997
2 57353  42.9974 175.6164 0001376 259.9055 162.1360 15.10492956  5806
STARLINK-6293           
1 57354U 23099AC  23250.58334491 -.00914911  00000+0 -21011-1 0  9998
2 57354  42.9982 167.3786 0001503 252.0278 309.0463 15.44450505  5714
STARLINK-6276           
1 57355U 23099AD  23250.58334491 -.00913030  00000+0 -21582-1 0  9993
2 57355  42.9978 167.4055 0001454 249.7725 300.2232 15.43601374  6028
STARLINK-6355           
1 57356U 23099AE  23250.58334491 -.00917617  00000+0 -20904-1 0  9996
2 57356  42.9982 167.3718 0001419 256.3561 307.4939 15.44693251  5839
STARLINK-5600           
1 57357U 23099AF  23250.58334491 -.00917937  00000+0 -21332-1 0  9998
2 57357  42.9959 167.3893 0001365 268.7063 287.7737 15.44113578  6029
STARLINK-6299           
1 57358U 23099AG  23250.58334491 -.00916732  00000+0 -20504-1 0  9991
2 57358  42.9981 167.3586 0001429 258.2081 311.2183 15.45223979  6025
STARLINK-6347           
1 57359U 23099AH  23250.58334491 -.00918219  00000+0 -21313-1 0  9993
2 57359  42.9982 167.3869 0001446 251.9909 305.6405 15.44148824  6027
STARLINK-6348           
1 57360U 23099AJ  23250.58334491 -.00917115  00000+0 -20275-1 0  9995
2 57360  42.9981 167.3488 0001467 252.1963 321.1167 15.45562152  6024
STARLINK-6340           
1 57361U 23099AK  23250.58334491 -.00917519  00000+0 -20709-1 0  9996
2 57361  42.9981 167.3649 0001435 253.8756 312.8526 15.44962279  5878
STARLINK-6343           
1 57362U 23099AL  23250.58334491 -.00916876  00000+0 -19939-1 0  9995
2 57362  42.9983 167.3378 0001494 250.2454 327.4888 15.46036361  6039
STARLINK-6356           
1 57363U 23099AM  23250.58334491 -.00918294  00000+0 -20410-1 0  9998
2 57363  42.9982 167.3530 0001457 250.4894 321.0115 15.45410550  6025
STARLINK-6338           
1 57364U 23099AN  23250.58334491 -.00917703  00000+0 -19794-1 0  9996
2 57364  42.9981 167.3332 0001394 256.7972 322.9933 15.46275503  6038
STARLINK-5007           
1 57365U 23099AP  23250.58334491 -.00916440  00000+0 -20111-1 0  9999
2 57365  42.9982 167.3434 0001474 254.1195 321.3115 15.45773745  6003
STARLINK-6174           
1 57366U 23099AQ  23250.58334491 -.00917682  00000+0 -19438-1 0  9999
2 57366  42.9982 167.3231 0001354 262.3948 321.3725 15.46796416  5718
STARLINK-6215           
1 57367U 23099AR  23250.14044350 -.00000932  00000+0 -36637-5 0  9999
2 57367  42.9995 167.9166 0001341 274.0377  86.0338 15.71346428  9416
STARLINK-6218           
1 57368U 23099AS  23250.15573847 -.00055579  00000+0 -10218-2 0  9990
2 57368  43.0002 169.8094 0001931 302.9232  57.1441 15.48470268  8647
STARLINK-6168           
1 57369U 23099AT  23250.58334491 -.00917597  00000+0 -19659-1 0  9992
2 57369  42.9982 167.3285 0001405 255.8739 325.6689 15.46468642  5872
STARLINK-5353           
1 57370U 23099AU  23250.15515249 -.00020324  00000+0 -36435-3 0  9995
2 57370  42.9998 169.8067 0002091 303.4371  56.6288 15.48757201  8648
STARLINK-6032           
1 57371U 23099AV  23250.58334491 -.00918038  00000+0 -19353-1 0  9997
2 57371  42.9982 167.3198 0001370 263.5171 321.6161 15.46933980  5980
STARLINK-5975           
1 57372U 23099AW  23250.58334491 -.00910101  00000+0 -19272-1 0  9991
2 57372  42.9982 167.0064 0001638 252.8167  99.8572 15.46782084  6037
STARLINK-6370           
1 57373U 23099AX  23250.15543478 -.00036377  00000+0 -66137-3 0  9990
2 57373  43.0003 169.8086 0001793 304.8314  55.2376 15.48626758  8646
STARLINK-6369           
1 57374U 23099AY  23250.15550249  .00004997  00000+0  41507-4 0  9991
2 57374  43.0007 168.0374 0001647 241.9747 118.0954 15.71367918  8669
STARLINK-6363           
1 57375U 23099AZ  23250.15494084 -.00009696  00000+0 -16994-3 0  9990
2 57375  43.0003 169.8040 0001925 304.8817  55.1861 15.48835641  8644
STARLINK-6367           
1 57376U 23099BA  23250.21875642  .00002264  00000+0  47011-4 0  9998
2 57376  43.0002 169.4230 0001212 267.4362  92.6359 15.48890497  8658
STARLINK-6358           
1 57377U 23099BB  23250.15457360 -.00000431  00000+0 -17450-5 0  9996
2 57377  43.0003 169.7995 0001597 280.4506  79.6174 15.48905212  8643
STARLINK-6364           
1 57378U 23099BC  23250.15529834  .00002569  00000+0  23022-4 0  9996
2 57378  42.9980 168.0368 0001594 275.0834  84.9852 15.71366596  9402
STARLINK-6361           
1 57379U 23099BD  23250.15441740  .00000138  00000+0  85537-5 0  9996
2 57379  43.0012 169.7996 0001307 267.4567  92.6143 15.48912209  8642
STARLINK-6366           
1 57380U 23099BE  23250.15519553  .00001733  00000+0  16652-4 0  9999
2 57380  43.0005 168.0357 0001323 288.7715  71.3009 15.71364565  9398
